{"type": "FeatureCollection", "features": [ {"type": "Feature", "properties": {"norad_id": 29919, "name": "FENGYUN 1C DEB", "group": "fengyun-1c-debris", "lat": -42.98179446236941, "lon": -36.265385285226806, "alt_km": 947.9036378063083, "timestamp": "2025-12-24T09:46:31.276366+00:00", "meta": {"OBJECT_NAME": "FENGYUN 1C DEB", "OBJECT_ID": "1999-025HR", "EPOCH": "2025-12-24T00:37:17.421312", "MEAN_MOTION": 13.85127753, "ECCENTRICITY": 0.0136912, "INCLINATION": 98.4797, "RA_OF_ASC_NODE": 151.381, "ARG_OF_PERICENTER": 312.7804, "MEAN_ANOMALY": 171.4296, "EPHEMERIS_TYPE": 0, "CLASSIFICATION_TYPE": "U", "NORAD_CAT_ID": 29919, "ELEMENT_SET_NO": 999, "REV_AT_EPOCH": 95691, "BSTAR": 0.0001586, "MEAN_MOTION_DOT": 1.54e-06, "MEAN_MOTION_DDOT": 0}, "tle": {"line1": "1 29919U 99025HR  25358.02589608  .00000154  00000+0  15860-3 0  9998", "line2": "2 29919  98.4797 151.3810 0136912 312.7804 171.4296 13.85127753956914"}}, "geometry": {"type": "Point", "coordinates": [-36.265385285226806, -42.98179446236941]}}, {"type": "Feature", "properties": {"norad_id": 29920, "name": "FENGYUN 1C DEB", "group": "fengyun-1c-debris", "lat": 21.727688888001538, "lon": 35.3858302504506, "alt_km": 879.3823034588249, "timestamp": "2025-12-24T09:46:31.276377+00:00", "meta": {"OBJECT_NAME": "FENGYUN 1C DEB", "OBJECT_ID": "1999-025HS", "EPOCH": "2025-12-21T12:34:58.800288", "MEAN_MOTION": 14.03693596, "ECCENTRICITY": 0.01249732, "INCLINATION": 98.3912, "RA_OF_ASC_NODE": 209.3515, "ARG_OF_PERICENTER": 255.9523, "MEAN_ANOMALY": 102.7727, "EPHEMERIS_TYPE": 0, "CLASSIFICATION_TYPE": "U", "NORAD_CAT_ID": 29920, "ELEMENT_SET_NO": 999, "REV_AT_EPOCH": 96411, "BSTAR": 0.0011522683, "MEAN_MOTION_DOT": 1.901e-05, "MEAN_MOTION_DDOT": 0}, "tle": {"line1": "1 29920U 99025HS  25355.52429167  .00001901  00000+0  11523-2 0  9997", "line2": "2 29920  98.3912 209.3515 0124973 255.9523 102.7727 14.03693596964111"}}, "geometry": {"type": "Point", "coordinates": [35.3858302504506, 21.727688888001538]}}, {"type": "Feature", "properties": {"norad_id": 29921, "name": "FENGYUN 1C DEB", "group": "fengyun-1c-debris", "lat": 58.81005178854284, "lon": -161.0105314865897, "alt_km": 860.6607220080723, "timestamp": "2025-12-24T09:46:31.276387+00:00", "meta": {"OBJECT_NAME": "FENGYUN 1C DEB", "OBJECT_ID": "1999-025HT", "EPOCH": "2025-12-23T11:44:35.800800", "MEAN_MOTION": 14.06655575, "ECCENTRICITY": 0.004608, "INCLINATION": 98.7867, "RA_OF_ASC_NODE": 3.2955, "ARG_OF_PERICENTER": 39.9611, "MEAN_ANOMALY": 113.3549, "EPHEMERIS_TYPE": 0, "CLASSIFICATION_TYPE": "U", "NORAD_CAT_ID": 29921, "ELEMENT_SET_NO": 999, "REV_AT_EPOCH": 97027, "BSTAR": 0.00043704, "MEAN_MOTION_DOT": 6.89e-06, "MEAN_MOTION_DDOT": 0}, "tle": {"line1": "1 29921U 99025HT  25357.48930325  .00000689  00000+0  43704-3 0  9997", "line2": "2 29921  98.7867   3.2955 0046080  39.9611 113.3549 14.06655575970276"}}, "geometry": {"type": "Point", "coordinates": [-161.0105314865897, 58.81005178854284]}}, {"type": "Feature", "properties": {"norad_id": 29922, "name": "FENGYUN 1C DEB", "group": "fengyun-1c-debris", "lat": -70.40092481936311, "lon": 82.66965048186223, "alt_km": 859.938449896933, "timestamp": "2025-12-24T09:46:31.276398+00:00", "meta": {"OBJECT_NAME": "FENGYUN 1C DEB", "OBJECT_ID": "1999-025HU", "EPOCH": "2025-12-24T03:14:53.867616", "MEAN_MOTION": 13.98583364, "ECCENTRICITY": 0.0092552, "INCLINATION": 99.1333, "RA_OF_ASC_NODE": 55.5396, "ARG_OF_PERICENTER": 335.5079, "MEAN_ANOMALY": 24.1702, "EPHEMERIS_TYPE": 0, "CLASSIFICATION_TYPE": "U", "NORAD_CAT_ID": 29922, "ELEMENT_SET_NO": 999, "REV_AT_EPOCH": 96600, "BSTAR": 8.8221e-05, "MEAN_MOTION_DOT": 8.6e-07, "MEAN_MOTION_DDOT": 0}, "tle": {"line1": "1 29922U 99025HU  25358.13534569  .00000086  00000+0  88221-4 0  9996", "line2": "2 29922  99.1333  55.5396 0092552 335.5079  24.1702 13.98583364966009"}}, "geometry": {"type": "Point", "coordinates": [82.66965048186223, -70.40092481936311]}}, {"type": "Feature", "properties": {"norad_id": 29923, "name": "FENGYUN 1C DEB", "group": "fengyun-1c-debris", "lat": 50.66138525042191, "lon": -4.380869400271299, "alt_km": 840.2056110235644, "timestamp": "2025-12-24T09:46:31.276408+00:00", "meta": {"OBJECT_NAME": "FENGYUN 1C DEB", "OBJECT_ID": "1999-025HV", "EPOCH": "2025-12-23T23:39:05.489280", "MEAN_MOTION": 14.13911785, "ECCENTRICITY": 0.0018014, "INCLINATION": 98.6879, "RA_OF_ASC_NODE": 5.9609, "ARG_OF_PERICENTER": 137.9659, "MEAN_ANOMALY": 287.8609, "EPHEMERIS_TYPE": 0, "CLASSIFICATION_TYPE": "U", "NORAD_CAT_ID": 29923, "ELEMENT_SET_NO": 999, "REV_AT_EPOCH": 97434, "BSTAR": 0.00042917, "MEAN_MOTION_DOT": 7.73e-06, "MEAN_MOTION_DDOT": 0}, "tle": {"line1": "1 29923U 99025HV  25357.98548020  .00000773  00000+0  42917-3 0  9990", "line2": "2 29923  98.6879   5.9609 0018014 137.9659 287.8609 14.13911785974344"}}, "geometry": {"type": "Point", "coordinates": [-4.380869400271299, 50.66138525042191]}}, {"type": "Feature", "properties": {"norad_id": 29924, "name": "FENGYUN 1C DEB", "group": "fengyun-1c-debris", "lat": 4.2577464414048585, "lon": -168.3418490302322, "alt_km": 852.7793601783887, "timestamp": "2025-12-24T09:46:31.276419+00:00", "meta": {"OBJECT_NAME": "FENGYUN 1C DEB", "OBJECT_ID": "1999-025HW", "EPOCH": "2025-12-23T20:08:34.914336", "MEAN_MOTION": 14.08893331, "ECCENTRICITY": 0.00261809, "INCLINATION": 98.7338, "RA_OF_ASC_NODE": 10.4521, "ARG_OF_PERICENTER": 225.21, "MEAN_ANOMALY": 311.2209, "EPHEMERIS_TYPE": 0, "CLASSIFICATION_TYPE": "U", "NORAD_CAT_ID": 29924, "ELEMENT_SET_NO": 999, "REV_AT_EPOCH": 97364, "BSTAR": 4.2550036e-05, "MEAN_MOTION_DOT": 3.1e-07, "MEAN_MOTION_DDOT": 0}, "tle": {"line1": "1 29924U 99025HW  25357.83929299  .00000031  00000+0  42550-4 0  9997", "line2": "2 29924  98.7338  10.4521 0026180 225.2100 311.2209 14.08893331973645"}}, "geometry": {"type": "Point", "coordinates": [-168.3418490302322, 4.2577464414048585]}}, {"type": "Feature", "properties": {"norad_id": 29926, "name": "FENGYUN 1C DEB", "group": "fengyun-1c-debris", "lat": -5.470883485743975, "lon": -12.378570987591635, "alt_km": 777.4416384808737, "timestamp": "2025-12-24T09:46:31.276429+00:00", "meta": {"OBJECT_NAME": "FENGYUN 1C DEB", "OBJECT_ID": "1999-025HY", "EPOCH": "2025-12-23T22:12:41.713920", "MEAN_MOTION": 14.3342129, "ECCENTRICITY": 0.0247887, "INCLINATION": 98.2841, "RA_OF_ASC_NODE": 346.3602, "ARG_OF_PERICENTER": 266.708, "MEAN_ANOMALY": 120.1173, "EPHEMERIS_TYPE": 0, "CLASSIFICATION_TYPE": "U", "NORAD_CAT_ID": 29926, "ELEMENT_SET_NO": 999, "REV_AT_EPOCH": 98741, "BSTAR": 0.00028762, "MEAN_MOTION_DOT": 1.066e-05, "MEAN_MOTION_DDOT": 0}, "tle": {"line1": "1 29926U 99025HY  25357.92548280  .00001066  00000+0  28762-3 0  9993", "line2": "2 29926  98.2841 346.3602 0247887 266.7080 120.1173 14.33421290987414"}}, "geometry": {"type": "Point", "coordinates": [-12.378570987591635, -5.470883485743975]}}, {"type": "Feature", "properties": {"norad_id": 29927, "name": "FENGYUN 1C DEB", "group": "fengyun-1c-debris", "lat": 54.89650226643664, "lon": 10.609530598483678, "alt_km": 646.1446548856047, "timestamp": "2025-12-24T09:46:31.276440+00:00", "meta": {"OBJECT_NAME": "FENGYUN 1C DEB", "OBJECT_ID": "1999-025HZ", "EPOCH": "2025-12-23T21:04:00.301728", "MEAN_MOTION": 14.749482, "ECCENTRICITY": 0.0018043, "INCLINATION": 99.0832, "RA_OF_ASC_NODE": 23.1718, "ARG_OF_PERICENTER": 176.6695, "MEAN_ANOMALY": 309.4691, "EPHEMERIS_TYPE": 0, "CLASSIFICATION_TYPE": "U", "NORAD_CAT_ID": 29927, "ELEMENT_SET_NO": 999, "REV_AT_EPOCH": 98811, "BSTAR": 0.0027462, "MEAN_MOTION_DOT": 0.00018484, "MEAN_MOTION_DDOT": 0}, "tle": {"line1": "1 29927U 99025HZ  25357.87778127  .00018484  00000+0  27462-2 0  9990", "line2": "2 29927  99.0832  23.1718 0018043 176.6695 309.4691 14.74948200988118"}}, "geometry": {"type": "Point", "coordinates": [10.609530598483678, 54.89650226643664]}}, {"type": "Feature", "properties": {"norad_id": 29928, "name": "FENGYUN 1C DEB", "group": "fengyun-1c-debris", "lat": 46.15620875097802, "lon": -146.8845586328449, "alt_km": 878.9966853352844, "timestamp": "2025-12-24T09:46:31.276450+00:00", "meta": {"OBJECT_NAME": "FENGYUN 1C DEB", "OBJECT_ID": "1999-025JA", "EPOCH": "2025-12-24T00:38:35.908800", "MEAN_MOTION": 13.88103011, "ECCENTRICITY": 0.0143039, "INCLINATION": 99.5835, "RA_OF_ASC_NODE": 22.5935, "ARG_OF_PERICENTER": 73.1252, "MEAN_ANOMALY": 317.9481, "EPHEMERIS_TYPE": 0, "CLASSIFICATION_TYPE": "U", "NORAD_CAT_ID": 29928, "ELEMENT_SET_NO": 999, "REV_AT_EPOCH": 95648, "BSTAR": 0.00062341, "MEAN_MOTION_DOT": 7.61e-06, "MEAN_MOTION_DDOT": 0}, "tle": {"line1": "1 29928U 99025JA  25358.02680450  .00000761  00000+0  62341-3 0  9995", "line2": "2 29928  99.5835  22.5935 0143039  73.1252 317.9481 13.88103011956488"}}, "geometry": {"type": "Point", "coordinates": [-146.8845586328449, 46.15620875097802]}}, {"type": "Feature", "properties": {"norad_id": 29929, "name": "FENGYUN 1C DEB", "group": "fengyun-1c-debris", "lat": -12.195285096887268, "lon": 95.13537597172429, "alt_km": 829.4209197198588, "timestamp": "2025-12-24T09:46:31.276460+00:00", "meta": {"OBJECT_NAME": "FENGYUN 1C DEB", "OBJECT_ID": "1999-025JB", "EPOCH": "2025-12-24T00:36:31.079808", "MEAN_MOTION": 14.01393445, "ECCENTRICITY": 0.013177, "INCLINATION": 98.6246, "RA_OF_ASC_NODE": 276.654, "ARG_OF_PERICENTER": 144.5631, "MEAN_ANOMALY": 280.6711, "EPHEMERIS_TYPE": 0, "CLASSIFICATION_TYPE": "U", "NORAD_CAT_ID": 29929, "ELEMENT_SET_NO": 999, "REV_AT_EPOCH": 96114, "BSTAR": 0.00096628, "MEAN_MOTION_DOT": 1.532e-05, "MEAN_MOTION_DDOT": 0}, "tle": {"line1": "1 29929U 99025JB  25358.02535972  .00001532  00000+0  96628-3 0  9996", "line2": "2 29929  98.6246 276.6540 0131770 144.5631 280.6711 14.01393445961141"}}, "geometry": {"type": "Point", "coordinates": [95.13537597172429, -12.195285096887268]}}]}